start=new Date('2022-09-26T00:00:00.000Z').valueOf();
sats=[{"GP_ID":"213477537","TLE_LINE2":"2 47791  53.0527 152.1128 0001363  68.5831 291.5303 15.06394028 86203","MEAN_MOTION_DDOT":"0.0000000000000","OBJECT_NAME":"STARLINK-2322","REV_AT_EPOCH":"8620","MEAN_ANOMALY":"291.5303","OBJECT_TYPE":"PAYLOAD","ELEMENT_SET_NO":"999","MEAN_MOTION":"15.06394028","ECCENTRICITY":"0.00013630","EPOCH":"2022-09-25T18:24:08.396640","MEAN_ELEMENT_THEORY":"SGP4","RA_OF_ASC_NODE":"152.1128","CLASSIFICATION_TYPE":"U","APOAPSIS":"548.176","TLE_LINE1":"1 47791U 21018E   22268.76676385 -.00000648  00000-0 -24608-4 0  9992","SEMIMAJOR_AXIS":"6925.367","BSTAR":"-0.00002460800000","COUNTRY_CODE":"US","DECAY_DATE":null,"REF_FRAME":"TEME","PERIAPSIS":"546.288","EPHEMERIS_TYPE":"0","OBJECT_ID":"2021-018E","LAUNCH_DATE":"2021-03-11","ARG_OF_PERICENTER":"68.5831","NORAD_CAT_ID":"47791","FILE":"3583540","PERIOD":"95.593","CENTER_NAME":"EARTH","SITE":"AFETR","RCS_SIZE":"LARGE","INCLINATION":"53.0527","MEAN_MOTION_DOT":"-0.00000648","TIME_SYSTEM":"UTC"},{"TIME_SYSTEM":"UTC","MEAN_MOTION_DOT":"-0.00001250","INCLINATION":"53.0564","RCS_SIZE":"LARGE","SITE":"AFETR","CENTER_NAME":"EARTH","PERIOD":"95.592","FILE":"3583540","NORAD_CAT_ID":"47792","ARG_OF_PERICENTER":"78.4883","OBJECT_ID":"2021-018F","LAUNCH_DATE":"2021-03-11","EPHEMERIS_TYPE":"0","REF_FRAME":"TEME","PERIAPSIS":"546.223","COUNTRY_CODE":"US","DECAY_DATE":null,"TLE_LINE1":"1 47792U 21018F   22268.77966781 -.00001250  00000-0 -65068-4 0  9991","BSTAR":"-0.00006506800000","SEMIMAJOR_AXIS":"6925.358","APOAPSIS":"548.223","CLASSIFICATION_TYPE":"U","RA_OF_ASC_NODE":"132.0756","MEAN_ELEMENT_THEORY":"SGP4","ECCENTRICITY":"0.00014440","EPOCH":"2022-09-25T18:42:43.298784","MEAN_MOTION":"15.06397061","ELEMENT_SET_NO":"999","OBJECT_TYPE":"PAYLOAD","MEAN_ANOMALY":"281.6268","REV_AT_EPOCH":"8648","OBJECT_NAME":"STARLINK-2334","MEAN_MOTION_DDOT":"0.0000000000000","TLE_LINE2":"2 47792  53.0564 132.0756 0001444  78.4883 281.6268 15.06397061 86486","GP_ID":"213477237"},{"EPHEMERIS_TYPE":"0","REF_FRAME":"TEME","PERIAPSIS":"546.222","NORAD_CAT_ID":"47793","FILE":"3583828","OBJECT_ID":"2021-018G","LAUNCH_DATE":"2021-03-11","ARG_OF_PERICENTER":"76.9186","SITE":"AFETR","CENTER_NAME":"EARTH","PERIOD":"95.592","TIME_SYSTEM":"UTC","MEAN_MOTION_DOT":"0.00003432","INCLINATION":"53.0532","RCS_SIZE":"LARGE","MEAN_MOTION_DDOT":"0.0000000000000","TLE_LINE2":"2 47793  53.0532 131.7121 0001417  76.9186 283.1961 15.06403231 86836","GP_ID":"213505948","MEAN_ANOMALY":"283.1961","OBJECT_TYPE":"PAYLOAD","REV_AT_EPOCH":"8683","OBJECT_NAME":"STARLINK-2338","MEAN_ELEMENT_THEORY":"SGP4","MEAN_MOTION":"15.06403231","ECCENTRICITY":"0.00014170","EPOCH":"2022-09-25T20:39:30.133152","ELEMENT_SET_NO":"999","DECAY_DATE":null,"COUNTRY_CODE":"US","APOAPSIS":"548.185","BSTAR":"0.00024913000000","TLE_LINE1":"1 47793U 21018G   22268.86076543  .00003432  00000-0  24913-3 0  9995","SEMIMAJOR_AXIS":"6925.339","CLASSIFICATION_TYPE":"U","RA_OF_ASC_NODE":"131.7121"},{"MEAN_MOTION":"15.06396606","EPOCH":"2022-09-25T19:09:16.823232","ECCENTRICITY":"0.00014960","ELEMENT_SET_NO":"999","MEAN_ELEMENT_THEORY":"SGP4","CLASSIFICATION_TYPE":"U","RA_OF_ASC_NODE":"131.9931","COUNTRY_CODE":"US","DECAY_DATE":null,"APOAPSIS":"548.260","BSTAR":"0.00019751000000","TLE_LINE1":"1 47794U 21018H   22268.79811138  .00002661  00000-0  19751-3 0  9992","SEMIMAJOR_AXIS":"6925.359","MEAN_MOTION_DDOT":"0.0000000000000","GP_ID":"213506688","TLE_LINE2":"2 47794  53.0549 131.9931 0001496  79.2516 280.8641 15.06396606 86832","OBJECT_NAME":"STARLINK-2341","REV_AT_EPOCH":"8683","MEAN_ANOMALY":"280.8641","OBJECT_TYPE":"PAYLOAD","PERIOD":"95.592","SITE":"AFETR","CENTER_NAME":"EARTH","RCS_SIZE":"LARGE","TIME_SYSTEM":"UTC","INCLINATION":"53.0549","MEAN_MOTION_DOT":"0.00002661","PERIAPSIS":"546.188","REF_FRAME":"TEME","EPHEMERIS_TYPE":"0","LAUNCH_DATE":"2021-03-11","OBJECT_ID":"2021-018H","ARG_OF_PERICENTER":"79.2516","FILE":"3583828","NORAD_CAT_ID":"47794"},{"CENTER_NAME":"EARTH","SITE":"AFETR","PERIOD":"95.593","INCLINATION":"53.0548","MEAN_MOTION_DOT":"0.00000162","TIME_SYSTEM":"UTC","RCS_SIZE":"LARGE","EPHEMERIS_TYPE":"0","REF_FRAME":"TEME","PERIAPSIS":"546.210","FILE":"3583828","NORAD_CAT_ID":"47795","LAUNCH_DATE":"2021-03-11","OBJECT_ID":"2021-018J","ARG_OF_PERICENTER":"93.7030","MEAN_ELEMENT_THEORY":"SGP4","ELEMENT_SET_NO":"999","MEAN_MOTION":"15.06390847","ECCENTRICITY":"0.00014900","EPOCH":"2022-09-25T22:04:25.530816","APOAPSIS":"548.273","BSTAR":"0.00002980600000","TLE_LINE1":"1 47795U 21018J   22268.91973994  .00000162  00000-0  29806-4 0  9993","SEMIMAJOR_AXIS":"6925.377","DECAY_DATE":null,"COUNTRY_CODE":"US","RA_OF_ASC_NODE":"131.4460","CLASSIFICATION_TYPE":"U","TLE_LINE2":"2 47795  53.0548 131.4460 0001490  93.7030 266.4130 15.06390847 86902","GP_ID":"213505450","MEAN_MOTION_DDOT":"0.0000000000000","MEAN_ANOMALY":"266.4130","OBJECT_TYPE":"PAYLOAD","REV_AT_EPOCH":"8690","OBJECT_NAME":"STARLINK-2347"},{"MEAN_ELEMENT_THEORY":"SGP4","MEAN_MOTION":"15.06390109","ECCENTRICITY":"0.00013880","EPOCH":"2022-09-25T19:14:34.464192","ELEMENT_SET_NO":"999","COUNTRY_CODE":"US","DECAY_DATE":null,"APOAPSIS":"548.205","TLE_LINE1":"1 47796U 21018K   22268.80178778  .00000031  00000-0  21011-4 0  9994","SEMIMAJOR_AXIS":"6925.379","BSTAR":"0.00002101100000","CLASSIFICATION_TYPE":"U","RA_OF_ASC_NODE":"131.9701","MEAN_MOTION_DDOT":"0.0000000000000","TLE_LINE2":"2 47796  53.0539 131.9701 0001388  72.1500 287.9640 15.06390109 86832","GP_ID":"213505698","MEAN_ANOMALY":"287.9640","OBJECT_TYPE":"PAYLOAD","REV_AT_EPOCH":"8683","OBJECT_NAME":"STARLINK-2373","SITE":"AFETR","CENTER_NAME":"EARTH","PERIOD":"95.593","TIME_SYSTEM":"UTC","INCLINATION":"53.0539","MEAN_MOTION_DOT":"0.00000031","RCS_SIZE":"LARGE","EPHEMERIS_TYPE":"0","PERIAPSIS":"546.283","REF_FRAME":"TEME","NORAD_CAT_ID":"47796","FILE":"3583828","OBJECT_ID":"2021-018K","LAUNCH_DATE":"2021-03-11","ARG_OF_PERICENTER":"72.1500"},{"SITE":"AFETR","CENTER_NAME":"EARTH","PERIOD":"95.592","TIME_SYSTEM":"UTC","INCLINATION":"53.0563","MEAN_MOTION_DOT":"0.00000482","RCS_SIZE":"LARGE","EPHEMERIS_TYPE":"0","REF_FRAME":"TEME","PERIAPSIS":"546.328","NORAD_CAT_ID":"47797","FILE":"3583351","ARG_OF_PERICENTER":"94.3605","OBJECT_ID":"2021-018L","LAUNCH_DATE":"2021-03-11","MEAN_ELEMENT_THEORY":"SGP4","ECCENTRICITY":"0.00012820","EPOCH":"2022-09-25T02:36:02.366208","MEAN_MOTION":"15.06399194","ELEMENT_SET_NO":"999","DECAY_DATE":null,"COUNTRY_CODE":"US","TLE_LINE1":"1 47797U 21018L   22268.10836072  .00000482  00000-0  51218-4 0  9998","SEMIMAJOR_AXIS":"6925.351","BSTAR":"0.00005121800000","APOAPSIS":"548.104","CLASSIFICATION_TYPE":"U","RA_OF_ASC_NODE":"160.0899","MEAN_MOTION_DDOT":"0.0000000000000","GP_ID":"213444640","TLE_LINE2":"2 47797  53.0563 160.0899 0001282  94.3605 265.7530 15.06399194 86370","OBJECT_TYPE":"PAYLOAD","MEAN_ANOMALY":"265.7530","REV_AT_EPOCH":"8637","OBJECT_NAME":"STARLINK-2377"},{"PERIAPSIS":"546.079","REF_FRAME":"TEME","EPHEMERIS_TYPE":"0","LAUNCH_DATE":"2021-03-11","OBJECT_ID":"2021-018M","ARG_OF_PERICENTER":"45.0799","NORAD_CAT_ID":"47798","FILE":"3583828","PERIOD":"95.592","CENTER_NAME":"EARTH","SITE":"AFETR","RCS_SIZE":"LARGE","INCLINATION":"53.0536","MEAN_MOTION_DOT":"0.00002016","TIME_SYSTEM":"UTC","TLE_LINE2":"2 47798  53.0536 131.9271 0001639  45.0799 315.0323 15.06399947 86831","GP_ID":"213506188","MEAN_MOTION_DDOT":"0.0000000000000","OBJECT_NAME":"STARLINK-2379","REV_AT_EPOCH":"8683","MEAN_ANOMALY":"315.0323","OBJECT_TYPE":"PAYLOAD","ELEMENT_SET_NO":"999","MEAN_MOTION":"15.06399947","ECCENTRICITY":"0.00016390","EPOCH":"2022-09-25T19:30:29.925504","MEAN_ELEMENT_THEORY":"SGP4","RA_OF_ASC_NODE":"131.9271","CLASSIFICATION_TYPE":"U","APOAPSIS":"548.349","SEMIMAJOR_AXIS":"6925.349","TLE_LINE1":"1 47798U 21018M   22268.81284636  .00002016  00000-0  15420-3 0  9999","BSTAR":"0.00015420000000","COUNTRY_CODE":"US","DECAY_DATE":null},{"INCLINATION":"53.0531","MEAN_MOTION_DOT":"0.00001227","TIME_SYSTEM":"UTC","RCS_SIZE":"LARGE","CENTER_NAME":"EARTH","SITE":"AFETR","PERIOD":"95.592","FILE":"3583828","NORAD_CAT_ID":"47799","OBJECT_ID":"2021-018N","LAUNCH_DATE":"2021-03-11","ARG_OF_PERICENTER":"58.9923","EPHEMERIS_TYPE":"0","REF_FRAME":"TEME","PERIAPSIS":"545.809","APOAPSIS":"548.631","TLE_LINE1":"1 47799U 21018N   22268.80915591  .00001227  00000-0  10127-3 0  9992","SEMIMAJOR_AXIS":"6925.355","BSTAR":"0.00010127000000","COUNTRY_CODE":"US","DECAY_DATE":null,"RA_OF_ASC_NODE":"131.9246","CLASSIFICATION_TYPE":"U","MEAN_ELEMENT_THEORY":"SGP4","ELEMENT_SET_NO":"999","MEAN_MOTION":"15.06397859","ECCENTRICITY":"0.00020370","EPOCH":"2022-09-25T19:25:11.070624","MEAN_ANOMALY":"301.1266","OBJECT_TYPE":"PAYLOAD","OBJECT_NAME":"STARLINK-2380","REV_AT_EPOCH":"8682","TLE_LINE2":"2 47799  53.0531 131.9246 0002037  58.9923 301.1266 15.06397859 86825","GP_ID":"213504950","MEAN_MOTION_DDOT":"0.0000000000000"},{"FILE":"3583828","NORAD_CAT_ID":"47800","LAUNCH_DATE":"2021-03-11","OBJECT_ID":"2021-018P","ARG_OF_PERICENTER":"68.4980","EPHEMERIS_TYPE":"0","PERIAPSIS":"546.096","REF_FRAME":"TEME","MEAN_MOTION_DOT":"-0.00000115","INCLINATION":"53.0535","TIME_SYSTEM":"UTC","RCS_SIZE":"LARGE","CENTER_NAME":"EARTH","SITE":"AFETR","PERIOD":"95.592","MEAN_ANOMALY":"291.6183","OBJECT_TYPE":"PAYLOAD","REV_AT_EPOCH":"8684","OBJECT_NAME":"STARLINK-2381","TLE_LINE2":"2 47800  53.0535 131.5438 0001638  68.4980 291.6183 15.06394659 86844","GP_ID":"213505198","MEAN_MOTION_DDOT":"0.0000000000000","APOAPSIS":"548.364","BSTAR":"0.00001120300000","TLE_LINE1":"1 47800U 21018P   22268.89761820 -.00000115  00000-0  11203-4 0  9991","SEMIMAJOR_AXIS":"6925.365","COUNTRY_CODE":"US","DECAY_DATE":null,"RA_OF_ASC_NODE":"131.5438","CLASSIFICATION_TYPE":"U","MEAN_ELEMENT_THEORY":"SGP4","ELEMENT_SET_NO":"999","MEAN_MOTION":"15.06394659","EPOCH":"2022-09-25T21:32:34.212480","ECCENTRICITY":"0.00016380"}];
